IRIDIUM 136             
1 42962U 17061H   23276.19179201  .00000178  00000+0  56545-4 0  9992
2 42962  86.3924  78.1459 0002315  87.2379 272.9082 14.34218161313220
